$$SOE
2461295.500000000, A.D. 2026-Sep-12 00:00:00.0000, -3.942774353853669E+08, 1.492634429829978E+07, 9.825135872952451E+07,
2461302.500000000, A.D. 2026-Sep-19 00:00:00.0000, -3.932019713934808E+08, 3.706964505508460E+06, 9.700657538092881E+07,
2461309.500000000, A.D. 2026-Sep-26 00:00:00.0000, -3.918392014773830E+08, -7.515041846563682E+06, 9.569089682254495E+07,
2461316.500000000, A.D. 2026-Oct-03 00:00:00.0000, -3.901867377878784E+08, -1.873141497558904E+07, 9.430445871630122E+07,
2461323.500000000, A.D. 2026-Oct-10 00:00:00.0000, -3.882424176929125E+08, -2.993370486565229E+07, 9.284746880103651E+07,
2461330.500000000, A.D. 2026-Oct-17 00:00:00.0000, -3.860043169891905E+08, -4.111327678019108E+07, 9.132020964669214E+07,
2461337.500000000, A.D. 2026-Oct-24 00:00:00.0000, -3.834707632358937E+08, -5.226131777240077E+07, 8.972304134942520E+07,
2461344.500000000, A.D. 2026-Oct-31 00:00:00.0000, -3.806403490559813E+08, -6.336884429789850E+07, 8.805640413619258E+07,
2461351.500000000, A.D. 2026-Nov-07 00:00:00.0000, -3.775119450048837E+08, -7.442671089042769E+07, 8.632082083581045E+07,
2461358.500000000, A.D. 2026-Nov-14 00:00:00.0000, -3.740847117387619E+08, -8.542561904415134E+07, 8.451689925154346E+07,
2461365.500000000, A.D. 2026-Nov-21 00:00:00.0000, -3.703581132214460E+08, -9.635612564766079E+07, 8.264533463704491E+07,
2461372.500000000, A.D. 2026-Nov-28 00:00:00.0000, -3.663319318921192E+08, -1.072086540007183E+08, 8.070691210109590E+07,
2461379.500000000, A.D. 2026-Dec-05 00:00:00.0000, -3.620062820955462E+08, -1.179735080860796E+08, 7.870250853544253E+07,
2461386.500000000, A.D. 2026-Dec-12 00:00:00.0000, -3.573816215242515E+08, -1.286408869922037E+08, 7.663309428341104E+07,
2461393.500000000, A.D. 2026-Dec-19 00:00:00.0000, -3.524587624670458E+08, -1.392008994806532E+08, 7.449973469991943E+07,
2461400.500000000, A.D. 2026-Dec-26 00:00:00.0000, -3.472388829112474E+08, -1.496435795610679E+08, 7.230359152223900E+07,
2461407.500000000, A.D. 2027-Jan-02 00:00:00.0000, -3.417235371277826E+08, -1.599589032512353E+08, 7.004592398888482E+07,
2461414.500000000, A.D. 2027-Jan-09 00:00:00.0000, -3.359146655261695E+08, -1.701368064782647E+08, 6.772808967634830E+07,
2461421.500000000, A.D. 2027-Jan-16 00:00:00.0000, -3.298146036466249E+08, -1.801672040779008E+08, 6.535154503020985E+07,
2461428.500000000, A.D. 2027-Jan-23 00:00:00.0000, -3.234260901458869E+08, -1.900400098873413E+08, 6.291784556291889E+07,
2461435.500000000, A.D. 2027-Jan-30 00:00:00.0000, -3.167522734931369E+08, -1.997451579243259E+08, 6.042864567798743E+07,
2461442.500000000, A.D. 2027-Feb-06 00:00:00.0000, -3.097967168577718E+08, -2.092726242454844E+08, 5.788569809155640E+07,
2461449.500000000, A.D. 2027-Feb-13 00:00:00.0000, -3.025634015578416E+08, -2.186124481842566E+08, 5.529085297643876E+07,
2461456.500000000, A.D. 2027-Feb-20 00:00:00.0000, -2.950567313430119E+08, -2.277547536673143E+08, 5.264605696510231E+07,
2461463.500000000, A.D. 2027-Feb-27 00:00:00.0000, -2.872815360302199E+08, -2.366897737225663E+08, 4.995335160755306E+07,
2461470.500000000, A.D. 2027-Mar-06 00:00:00.0000, -2.792430713958125E+08, -2.454078761480377E+08, 4.721487115473015E+07,
2461477.500000000, A.D. 2027-Mar-13 00:00:00.0000, -2.709470168554426E+08, -2.538995881753679E+08, 4.443283997579312E+07,
2461484.500000000, A.D. 2027-Mar-20 00:00:00.0000, -2.623994720035460E+08, -2.621556208373702E+08, 4.160956964250600E+07,
2461491.500000000, A.D. 2027-Mar-27 00:00:00.0000, -2.536069517657802E+08, -2.701668934553608E+08, 3.874745561865312E+07,
2461498.500000000, A.D. 2027-Apr-03 00:00:00.0000, -2.445763799301944E+08, -2.779245581532869E+08, 3.584897353668286E+07,
2461505.500000000, A.D. 2027-Apr-10 00:00:00.0000, -2.353150809776701E+08, -2.854200242280649E+08, 3.291667506594859E+07,
2461512.500000000, A.D. 2027-Apr-17 00:00:00.0000, -2.258307701841227E+08, -2.926449822375990E+08, 2.995318338081186E+07,
2461519.500000000, A.D. 2027-Apr-24 00:00:00.0000, -2.161315419231964E+08, -2.995914277130427E+08, 2.696118823121099E+07,
2461526.500000000, A.D. 2027-May-01 00:00:00.0000, -2.062258558925437E+08, -3.062516843114150E+08, 2.394344060912678E+07,
2461533.500000000, A.D. 2027-May-08 00:00:00.0000, -1.961225209947057E+08, -3.126184255048991E+08, 2.090274706623399E+07,
2461540.500000000, A.D. 2027-May-15 00:00:00.0000, -1.858306784229733E+08, -3.186846936996819E+08, 1.784196392370041E+07,
2461547.500000000, A.D. 2027-May-22 00:00:00.0000, -1.753597855834985E+08, -3.244439192264766E+08, 1.476399133478925E+07,
2461554.500000000, A.D. 2027-May-29 00:00:00.0000, -1.647195975801122E+08, -3.298899405305405E+08, 1.167176680506389E+07,
2461561.500000000, A.D. 2027-Jun-05 00:00:00.0000, -1.539201454748024E+08, -3.350170222987137E+08, 8.568258381033942E+06,
2461568.500000000, A.D. 2027-Jun-12 00:00:00.0000, -1.429717134421837E+08, -3.398198709705274E+08, 5.456457765462831E+06,
2461575.500000000, A.D. 2027-Jun-19 00:00:00.0000, -1.318848152718364E+08, -3.442936484594181E+08, 2.339373354261488E+06,
2461582.500000000, A.D. 2027-Jun-26 00:00:00.0000, -1.206701700733856E+08, -3.484339842504801E+08, -7.799768095493764E+05,
2461589.500000000, A.D. 2027-Jul-03 00:00:00.0000, -1.093386771964672E+08, -3.522369857870963E+08, -3.898572132989660E+06,
2461596.500000000, A.D. 2027-Jul-10 00:00:00.0000, -9.790139048181601E+07, -3.556992470750345E+08, -7.013396580497339E+06,
2461603.500000000, A.D. 2027-Jul-17 00:00:00.0000, -8.636949196747373E+07, -3.588178554964656E+08, -1.012144575461902E+07,
2461610.500000000, A.D. 2027-Jul-24 00:00:00.0000, -7.475426505842492E+07, -3.615903968658452E+08, -1.321973392669970E+07,
2461617.500000000, A.D. 2027-Jul-31 00:00:00.0000, -6.306706691439162E+07, -3.640149584772673E+08, -1.630530099433945E+07,
2461624.500000000, A.D. 2027-Aug-07 00:00:00.0000, -5.131930042212372E+07, -3.660901289931417E+08, -1.937521921283765E+07,
2461631.500000000, A.D. 2027-Aug-14 00:00:00.0000, -3.952238821628913E+07, -3.678149954447831E+08, -2.242659947188528E+07,
2461638.500000000, A.D. 2027-Aug-21 00:00:00.0000, -2.768774828859860E+07, -3.691891407428514E+08, -2.545659741312899E+07,
2461645.500000000, A.D. 2027-Aug-28 00:00:00.0000, -1.582676790642965E+07, -3.702126405470312E+08, -2.846241957179312E+07,
2461652.500000000, A.D. 2027-Sep-04 00:00:00.0000, -3.950777168731835E+06, -3.708860570611266E+08, -3.144132919947775E+07,
2461659.500000000, A.D. 2027-Sep-11 00:00:00.0000, 7.928976267100775E+06, -3.712104304955832E+08, -3.439065166747735E+07,
2461666.500000000, A.D. 2027-Sep-18 00:00:00.0000, 1.980135129231802E+07, -3.711872689397422E+08, -3.730777949280775E+07,
2461673.500000000, A.D. 2027-Sep-25 00:00:00.0000, 3.165533639953800E+07, -3.708185368238190E+08, -4.019017699476790E+07,
2461680.500000000, A.D. 2027-Oct-02 00:00:00.0000, 4.348007165139004E+07, -3.701066420539265E+08, -4.303538457088751E+07,
2461687.500000000, A.D. 2027-Oct-09 00:00:00.0000, 5.526486949656069E+07, -3.690544219433767E+08, -4.584102258280502E+07,
2461694.500000000, A.D. 2027-Oct-16 00:00:00.0000, 6.699923441914733E+07, -3.676651281215793E+08, -4.860479485453309E+07,
2461701.500000000, A.D. 2027-Oct-23 00:00:00.0000, 7.867288161635023E+07, -3.659424105585879E+08, -5.132449180351074E+07,
2461708.500000000, A.D. 2027-Oct-30 00:00:00.0000, 9.027575502605151E+07, -3.638903002298577E+08, -5.399799318849801E+07,
2461715.500000000, A.D. 2027-Nov-06 00:00:00.0000, 1.017980434992353E+08, -3.615131894269118E+08, -5.662327027777959E+07,
2461722.500000000, A.D. 2027-Nov-13 00:00:00.0000, 1.132301931024970E+08, -3.588158119192690E+08, -5.919838742966025E+07,
2461729.500000000, A.D. 2027-Nov-20 00:00:00.0000, 1.245629184379505E+08, -3.558032252779869E+08, -6.172150353648978E+07,
2461736.500000000, A.D. 2027-Nov-27 00:00:00.0000, 1.357872145989612E+08, -3.524807925197433E+08, -6.419087324769370E+07,
2461743.500000000, A.D. 2027-Dec-04 00:00:00.0000, 1.468943677521445E+08, -3.488541622799334E+08, -6.660484772430418E+07,
2461750.500000000, A.D. 2027-Dec-11 00:00:00.0000, 1.578759638195855E+08, -3.449292485988373E+08, -6.896187496938182E+07,
2461757.500000000, A.D. 2027-Dec-18 00:00:00.0000, 1.687238955683935E+08, -3.407122107760456E+08, -7.126049980589898E+07,
2461764.500000000, A.D. 2027-Dec-25 00:00:00.0000, 1.794303682974753E+08, -3.362094334042693E+08, -7.349936353609204E+07,
2461771.500000000, A.D. 2028-Jan-01 00:00:00.0000, 1.899879042064690E+08, -3.314275066671607E+08, -7.567720330504532E+07,
$$EOE